ONEWEB-0613             
1 56071U 23043AB  23298.93569415  .00003509  00000+0  92786-2 0  9997
2 56071  87.8953  91.3724 0001550  75.9890 284.1412 13.15578429 29521
ONEWEB-0630             
1 56072U 23043AC  23299.15955570  .00009804  00000+0  25948-1 0  9993
2 56072  87.8953  91.3279 0001263  78.4310 281.6962 13.15636732 30451
ONEWEB-0632             
1 56073U 23043AD  23298.92710159  .00015410  00000+0  40751-1 0  9999
2 56073  87.8960  91.3910 0001922  85.5873 274.5477 13.15682529 30421
ONEWEB-0633             
1 56074U 23043AE  23299.45308592  .00016395  00000+0  43346-1 0  9999
2 56074  87.8950  91.2783 0001446  68.9477 291.1807 13.15694826 30474
ONEWEB-0634             
1 56075U 23043AF  23299.13329409 -.00003377  00000+0 -90106-2 0  9990
2 56075  87.8953  91.3378 0001298 104.2147 255.9128 13.15523038 30427
ONEWEB-0635             
1 56076U 23043AG  23299.43233236 -.00009747  00000+0 -25988-1 0  9998
2 56076  87.8938  91.3502 0002139  83.2933 276.8441 13.15454996 30497
ONEWEB-0636             
1 56077U 23043AH  23299.50003623 -.00016973  00000+0 -45307-1 0  9998
2 56077  87.8942  91.3006 0002216  86.6568 273.4815 13.15392222 30489
ONEWEB-0637             
1 56078U 23043AJ  23299.49370126 -.00014855  00000+0 -39641-1 0  9993
2 56078  87.8913  91.2611 0002912  90.0671 270.0793 13.15402562 30506
